SUPERVIEW NEO-2 OBJECT B
1 68378U 26062B   26086.04924529  .00003139  00000+0  14873-3 0  9996
2 68378  97.4356  94.5245 0010396 272.3840  87.6205 15.20012563   173
CZ-2D R/B               
1 68379U 26062C   26089.17876809  .00009137  00000+0  29390-3 0  9995
2 68379  97.4996  97.4994 0053545  46.7393 313.8297 15.31055259   655
SHIYAN-33               
1 68405U 26064A   26087.92644434  .00006503  00000+0  27404-3 0  9993
2 68405  97.4665 163.8675 0014909 225.4312 134.5709 15.23577189   276
2026-065A               
1 68408U 26065A   26087.94058999  .00001379  00000+0  70532-4 0  9991
2 68408  97.4112 330.1101 0015809 287.1112  72.8390 15.18211376    88
